COSMO-SKYMED 2          
1 32376U 07059A   09079.04919789 -.00000002  00000-0  62858-5 0  4198
2 32376  97.8668 269.3447 0001189  81.0715 279.0639 14.82166487 69168
RADARSAT-2              
1 32382U 07061A   09079.11995590  .00000062  00000-0  41025-4 0  3961
2 32382  98.5825  88.0271 0001026  92.8685 351.6259 14.29981708 65966
CARTOSAT-2A             
1 32783U 08021A   09079.09356373  .00000040  00000-0  12644-4 0  9989
2 32783  97.9585 142.5786 0015506 346.1880  13.8906 14.78667236 48164
IMS-1                   
1 32786U 08021D   09079.20141521  .00000042  00000-0  12501-4 0  3249
2 32786  97.9549 143.2552 0012181 321.9438  38.0910 14.80046298 48225
JASON 2 (OSTM)          
1 33105U 08032A   09078.07429660 -.00000061  00000-0  00000+0 0  2577
2 33105  66.0414 258.0548 0007358 273.0053  87.0123 12.80930665 34806
RAPIDEYE 2              
1 33312U 08040A   09079.07263543  .00000035  00000-0  11642-4 0  6464
2 33312  97.9761 164.9265 0013482  44.8251 315.4050 14.79923871 30022
RAPIDEYE 5              
1 33313U 08040B   09079.09798620  .00000015  00000-0  90690-5 0  6421
2 33313  97.9769 164.2892 0017041 270.8516  89.0725 14.79897405 29978
RAPIDEYE 1              
1 33314U 08040C   09079.08655137  .00000038  00000-0  12102-4 0  6905
2 33314  97.9755 165.0532 0026219  53.6202 306.7417 14.79920739 30011
RAPIDEYE 3              
1 33315U 08040D   09079.05790750  .00000010  00000-0  84038-5 0  6205
2 33315  97.9752 164.4550 0012478 353.3348   6.7687 14.79924899 29975
RAPIDEYE 4              
1 33316U 08040E   09079.11142583 -.00000002  00000-0  67871-5 0  6217
2 33316  97.9751 164.3824 0011162 293.1463  66.8550 14.79924848 29976
HJ-1A                   
1 33320U 08041A   09079.06593994  .00000096  00000-0  21782-4 0  5955
2 33320  97.9883 155.8350 0025223  10.6748 349.4985 14.75127456 28750
HJ-1B                   
1 33321U 08041B   09079.23539296  .00000034  00000-0  12683-4 0  6054
2 33321  97.9895 155.9618 0043682  20.8668 339.4328 14.75129749 28763
GEOEYE 1                
1 33331U 08042A   09079.20940496  .00000014  00000-0  11626-4 0  5874
2 33331  98.1003 155.4040 0010643   4.1299 355.9994 14.64440118 28450
THEOS                   
1 33396U 08049A   09079.21894783 -.00000044  00000-0  51000-9 0  1808
2 33396  98.7537 147.4774 0001029  89.0667 271.0639 14.20012455 24151
COSMO-SKYMED 3          
1 33412U 08054A   09079.10406666  .00003728  00000-0  47432-3 0  4475
2 33412  97.8672 269.3986 0001055  79.8316 280.2900 14.82179882 21635
YAOGAN 4                
1 33446U 08061A   09079.20324067 -.00000050  00000-0  00000+0 0  3353
2 33446  97.9075 162.1369 0013175 320.2849  39.7356 14.75715247 16072
YAOGAN 5                
1 33456U 08064A   09079.14963795  .00000484  00000-0  22308-4 0  3087
2 33456  97.3810 155.5113 0005988 343.7460 104.2929 15.24870906 14485
